[
    {
        "CCSDS_OMM_VERS": "3.0",
        "COMMENT": "GENERATED VIA SPACE-TRACK.ORG API",
        "CREATION_DATE": "2024-10-22T06:26:16",
        "ORIGINATOR": "18 SPCS",
        "OBJECT_NAME": "SL-16 R/B",
        "OBJECT_ID": "1985-097B",
        "CENTER_NAME": "EARTH",
        "REF_FRAME": "TEME",
        "TIME_SYSTEM": "UTC",
        "MEAN_ELEMENT_THEORY": "SGP4",
        "EPOCH": "2024-10-22T05:14:48.260832",
        "MEAN_MOTION": "14.16474807",
        "ECCENTRICITY": "0.00094330",
        "INCLINATION": "71.0002",
        "RA_OF_ASC_NODE": "120.4193",
        "ARG_OF_PERICENTER": "296.6145",
        "MEAN_ANOMALY": "127.0361",
        "EPHEMERIS_TYPE": "0",
        "CLASSIFICATION_TYPE": "U",
        "NORAD_CAT_ID": "16182",
        "ELEMENT_SET_NO": "999",
        "REV_AT_EPOCH": "1624",
        "BSTAR": "0.00013641000000",
        "MEAN_MOTION_DOT": "0.00000224",
        "MEAN_MOTION_DDOT": "0.0000000000000",
        "SEMIMAJOR_AXIS": "7215.436",
        "PERIOD": "101.661",
        "APOAPSIS": "844.108",
        "PERIAPSIS": "830.495",
        "OBJECT_TYPE": "ROCKET BODY",
        "RCS_SIZE": "LARGE",
        "COUNTRY_CODE": "CIS",
        "LAUNCH_DATE": "1985-10-22",
        "SITE": "TTMTR",
        "DECAY_DATE": null,
        "FILE": "4530637",
        "GP_ID": "271236399",
        "TLE_LINE0": "0 SL-16 R/B",
        "TLE_LINE1": "1 16182U 85097B   24296.21861413  .00000224  00000-0  13641-3 0  9992",
        "TLE_LINE2": "2 16182  71.0002 120.4193 0009433 296.6145 127.0361 14.16474807 16247"
    },
    {
        "CCSDS_OMM_VERS": "3.0",
        "COMMENT": "GENERATED VIA SPACE-TRACK.ORG API",
        "CREATION_DATE": "2024-10-22T04:17:00",
        "ORIGINATOR": "18 SPCS",
        "OBJECT_NAME": "SL-8 R/B",
        "OBJECT_ID": "1985-110B",
        "CENTER_NAME": "EARTH",
        "REF_FRAME": "TEME",
        "TIME_SYSTEM": "UTC",
        "MEAN_ELEMENT_THEORY": "SGP4",
        "EPOCH": "2024-10-21T19:42:02.013696",
        "MEAN_MOTION": "13.77167553",
        "ECCENTRICITY": "0.00310010",
        "INCLINATION": "82.9324",
        "RA_OF_ASC_NODE": "166.0451",
        "ARG_OF_PERICENTER": "136.6303",
        "MEAN_ANOMALY": "223.7302",
        "EPHEMERIS_TYPE": "0",
        "CLASSIFICATION_TYPE": "U",
        "NORAD_CAT_ID": "16292",
        "ELEMENT_SET_NO": "999",
        "REV_AT_EPOCH": "95412",
        "BSTAR": "0.00009785200000",
        "MEAN_MOTION_DOT": "0.00000113",
        "MEAN_MOTION_DDOT": "0.0000000000000",
        "SEMIMAJOR_AXIS": "7352.087",
        "PERIOD": "104.562",
        "APOAPSIS": "996.744",
        "PERIAPSIS": "951.160",
        "OBJECT_TYPE": "ROCKET BODY",
        "RCS_SIZE": "LARGE",
        "COUNTRY_CODE": "CIS",
        "LAUNCH_DATE": "1985-11-28",
        "SITE": "PKMTR",
        "DECAY_DATE": null,
        "FILE": "4530606",
        "GP_ID": "271209935",
        "TLE_LINE0": "0 SL-8 R/B",
        "TLE_LINE1": "1 16292U 85110B   24295.82085664  .00000113  00000-0  97852-4 0  9996",
        "TLE_LINE2": "2 16292  82.9324 166.0451 0031001 136.6303 223.7302 13.77167553954125"
    },
    {
        "CCSDS_OMM_VERS": "3.0",
        "COMMENT": "GENERATED VIA SPACE-TRACK.ORG API",
        "CREATION_DATE": "2024-10-22T06:26:16",
        "ORIGINATOR": "18 SPCS",
        "OBJECT_NAME": "SL-16 R/B",
        "OBJECT_ID": "1987-027B",
        "CENTER_NAME": "EARTH",
        "REF_FRAME": "TEME",
        "TIME_SYSTEM": "UTC",
        "MEAN_ELEMENT_THEORY": "SGP4",
        "EPOCH": "2024-10-22T02:59:21.327360",
        "MEAN_MOTION": "14.17033691",
        "ECCENTRICITY": "0.00051470",
        "INCLINATION": "71.0020",
        "RA_OF_ASC_NODE": "257.5269",
        "ARG_OF_PERICENTER": "197.4992",
        "MEAN_ANOMALY": "162.5955",
        "EPHEMERIS_TYPE": "0",
        "CLASSIFICATION_TYPE": "U",
        "NORAD_CAT_ID": "17590",
        "ELEMENT_SET_NO": "999",
        "REV_AT_EPOCH": "94427",
        "BSTAR": "0.00003421700000",
        "MEAN_MOTION_DOT": "0.00000021",
        "MEAN_MOTION_DDOT": "0.0000000000000",
        "SEMIMAJOR_AXIS": "7213.539",
        "PERIOD": "101.621",
        "APOAPSIS": "839.117",
        "PERIAPSIS": "831.691",
        "OBJECT_TYPE": "ROCKET BODY",
        "RCS_SIZE": "LARGE",
        "COUNTRY_CODE": "CIS",
        "LAUNCH_DATE": "1987-03-18",
        "SITE": "TTMTR",
        "DECAY_DATE": null,
        "FILE": "4530633",
        "GP_ID": "271236474",
        "TLE_LINE0": "0 SL-16 R/B",
        "TLE_LINE1": "1 17590U 87027B   24296.12455240  .00000021  00000-0  34217-4 0  9996",
        "TLE_LINE2": "2 17590  71.0020 257.5269 0005147 197.4992 162.5955 14.17033691944272"
    },
    {
        "CCSDS_OMM_VERS": "3.0",
        "COMMENT": "GENERATED VIA SPACE-TRACK.ORG API",
        "CREATION_DATE": "2024-10-22T04:17:00",
        "ORIGINATOR": "18 SPCS",
        "OBJECT_NAME": "COSMOS 1844",
        "OBJECT_ID": "1987-041A",
        "CENTER_NAME": "EARTH",
        "REF_FRAME": "TEME",
        "TIME_SYSTEM": "UTC",
        "MEAN_ELEMENT_THEORY": "SGP4",
        "EPOCH": "2024-10-21T19:34:12.078912",
        "MEAN_MOTION": "14.14390383",
        "ECCENTRICITY": "0.00288350",
        "INCLINATION": "70.9023",
        "RA_OF_ASC_NODE": "16.8517",
        "ARG_OF_PERICENTER": "55.7399",
        "MEAN_ANOMALY": "304.6448",
        "EPHEMERIS_TYPE": "0",
        "CLASSIFICATION_TYPE": "U",
        "NORAD_CAT_ID": "17973",
        "ELEMENT_SET_NO": "999",
        "REV_AT_EPOCH": "93233",
        "BSTAR": "0.00003108600000",
        "MEAN_MOTION_DOT": "0.00000012",
        "MEAN_MOTION_DDOT": "0.0000000000000",
        "SEMIMAJOR_AXIS": "7222.524",
        "PERIOD": "101.811",
        "APOAPSIS": "865.215",
        "PERIAPSIS": "823.563",
        "OBJECT_TYPE": "PAYLOAD",
        "RCS_SIZE": "LARGE",
        "COUNTRY_CODE": "CIS",
        "LAUNCH_DATE": "1987-05-13",
        "SITE": "TTMTR",
        "DECAY_DATE": null,
        "FILE": "4530606",
        "GP_ID": "271211090",
        "TLE_LINE0": "0 COSMOS 1844",
        "TLE_LINE1": "1 17973U 87041A   24295.81541758  .00000012  00000-0  31086-4 0  9993",
        "TLE_LINE2": "2 17973  70.9023  16.8517 0028835  55.7399 304.6448 14.14390383932337"
    },
    {
        "CCSDS_OMM_VERS": "3.0",
        "COMMENT": "GENERATED VIA SPACE-TRACK.ORG API",
        "CREATION_DATE": "2024-10-21T17:49:28",
        "ORIGINATOR": "18 SPCS",
        "OBJECT_NAME": "SL-16 R/B",
        "OBJECT_ID": "1987-041B",
        "CENTER_NAME": "EARTH",
        "REF_FRAME": "TEME",
        "TIME_SYSTEM": "UTC",
        "MEAN_ELEMENT_THEORY": "SGP4",
        "EPOCH": "2024-10-21T04:55:19.551360",
        "MEAN_MOTION": "14.17508711",
        "ECCENTRICITY": "0.00161040",
        "INCLINATION": "71.0106",
        "RA_OF_ASC_NODE": "16.3517",
        "ARG_OF_PERICENTER": "258.1162",
        "MEAN_ANOMALY": "122.6524",
        "EPHEMERIS_TYPE": "0",
        "CLASSIFICATION_TYPE": "U",
        "NORAD_CAT_ID": "17974",
        "ELEMENT_SET_NO": "999",
        "REV_AT_EPOCH": "93659",
        "BSTAR": "0.00019138000000",
        "MEAN_MOTION_DOT": "0.00000341",
        "MEAN_MOTION_DDOT": "0.0000000000000",
        "SEMIMAJOR_AXIS": "7211.927",
        "PERIOD": "101.587",
        "APOAPSIS": "845.407",
        "PERIAPSIS": "822.178",
        "OBJECT_TYPE": "ROCKET BODY",
        "RCS_SIZE": "LARGE",
        "COUNTRY_CODE": "CIS",
        "LAUNCH_DATE": "1987-05-13",
        "SITE": "TTMTR",
        "DECAY_DATE": null,
        "FILE": "4530563",
        "GP_ID": "271180342",
        "TLE_LINE0": "0 SL-16 R/B",
        "TLE_LINE1": "1 17974U 87041B   24295.20508740  .00000341  00000-0  19138-3 0  9999",
        "TLE_LINE2": "2 17974  71.0106  16.3517 0016104 258.1162 122.6524 14.17508711936594"
    },
    {
        "CCSDS_OMM_VERS": "3.0",
        "COMMENT": "GENERATED VIA SPACE-TRACK.ORG API",
        "CREATION_DATE": "2024-10-22T06:46:17",
        "ORIGINATOR": "18 SPCS",
        "OBJECT_NAME": "COSMOS 1943",
        "OBJECT_ID": "1988-039A",
        "CENTER_NAME": "EARTH",
        "REF_FRAME": "TEME",
        "TIME_SYSTEM": "UTC",
        "MEAN_ELEMENT_THEORY": "SGP4",
        "EPOCH": "2024-10-22T04:23:48.142176",
        "MEAN_MOTION": "14.15541731",
        "ECCENTRICITY": "0.00138350",
        "INCLINATION": "71.0035",
        "RA_OF_ASC_NODE": "224.2855",
        "ARG_OF_PERICENTER": "290.5154",
        "MEAN_ANOMALY": "168.9320",
        "EPHEMERIS_TYPE": "0",
        "CLASSIFICATION_TYPE": "U",
        "NORAD_CAT_ID": "19119",
        "ELEMENT_SET_NO": "999",
        "REV_AT_EPOCH": "88182",
        "BSTAR": "0.00001060200000",
        "MEAN_MOTION_DOT": "-0.00000027",
        "MEAN_MOTION_DDOT": "0.0000000000000",
        "SEMIMAJOR_AXIS": "7218.607",
        "PERIOD": "101.728",
        "APOAPSIS": "850.459",
        "PERIAPSIS": "830.485",
        "OBJECT_TYPE": "PAYLOAD",
        "RCS_SIZE": "LARGE",
        "COUNTRY_CODE": "CIS",
        "LAUNCH_DATE": "1988-05-15",
        "SITE": "TTMTR",
        "DECAY_DATE": null,
        "FILE": "4530675",
        "GP_ID": "271238059",
        "TLE_LINE0": "0 COSMOS 1943",
        "TLE_LINE1": "1 19119U 88039A   24296.18319609 -.00000027  00000-0  10602-4 0  9992",
        "TLE_LINE2": "2 19119  71.0035 224.2855 0013835 290.5154 168.9320 14.15541731881821"
    }
]